SL-3 R/B                
1 19046U 88032B   26079.52912516  .00004556  00000+0  21290-3 0  9992
2 19046  97.5207  62.7433 0025396 192.2129 167.8493 15.20024414 53759
SL-16 R/B               
1 19120U 88039B   26079.33830980 -.00000116  00000+0 -31903-4 0  9998
2 19120  71.0151  46.0292 0023288 318.9466  40.9905 14.19617766959898
COSMOS 1953             
1 19210U 88050A   26079.23027229  .00004716  00000+0  16756-3 0  9990
2 19210  82.5089 147.6459 0012666  89.5942 270.6749 15.28683692 39390
SL-8 R/B                
1 19257U 88053B   26079.44151142  .00000266  00000+0  94787-4 0  9996
2 19257  74.0450  92.6458 0021549 270.5389 195.5849 14.38922647978141
COSMOS 1975             
1 19573U 88093A   26079.52917003  .00005722  00000+0  20652-3 0  9997
2 19573  82.5160 106.8006 0013041 127.8919 232.3502 15.28205545 21069
SL-14 R/B               
1 19574U 88093B   26079.38146245  .00000491  00000+0  53647-4 0  9993
2 19574  82.5327  32.0076 0020878   7.2816 108.8688 14.85668857  2607
SL-16 R/B               
1 19650U 88102B   26079.42950932 -.00000126  00000+0 -39675-4 0  9992
2 19650  70.9988 128.9005 0014722 344.9058  15.1624 14.16155874928413
INTERCOSMOS 24          
1 20261U 89080A   26079.28738038  .00000476  00000+0  14137-3 0  9994
2 20261  82.6016  97.5012 1186692 268.1968  78.3158 12.59572157668133
SL-14 R/B               
1 20262U 89080C   26079.51848822  .00000411  00000+0  11661-3 0  9992
2 20262  82.5967 166.2374 1230821 160.0075 205.3979 12.50505070661504
DELTA 1 R/B             
1 20323U 89089B   26079.31206596  .00000310  00000+0  84956-4 0  9999
2 20323  97.0697 285.0606 0070718  89.0718 271.8582 14.50671687897274
ARIANE 40 R/B           
1 20443U 90005H   26079.58462713  .00000215  00000+0  81791-4 0  9994
2 20443  98.3060 139.9203 0010538 165.6883 194.4606 14.39877116894370
DELTA 2 R/B(1)          
1 20453U 90008B   26079.14924541  .00054938  00000+0  62061-3 0  9991
2 20453  35.6026 106.1373 0081508 355.6437   4.3584 15.57257585927769
