CCSDS_OMM_VERS = 2.0
CREATION_DATE  = 
ORIGINATOR     = 

OBJECT_NAME    = SL-3 R/B
OBJECT_ID      = 1988-032B
CENTER_NAME    = EARTH
REF_FRAME      = TEME
TIME_SYSTEM    = UTC
MEAN_ELEMENT_THEORY = SGP/SGP4

EPOCH          = 2026-03-20T12:41:56.413824
MEAN_MOTION    = 15.20024414
ECCENTRICITY   = .0025396
INCLINATION    = 97.5207
RA_OF_ASC_NODE = 62.7433
ARG_OF_PERICENTER = 192.2129
MEAN_ANOMALY   = 167.8493

EPHEMERIS_TYPE = 0
CLASSIFICATION_TYPE = U
NORAD_CAT_ID   = 19046
ELEMENT_SET_NO = 999
REV_AT_EPOCH   = 5375
BSTAR          = .21289748E-3
MEAN_MOTION_DOT = .4556E-4
MEAN_MOTION_DDOT = 0

CCSDS_OMM_VERS = 2.0
CREATION_DATE  = 
ORIGINATOR     = 

OBJECT_NAME    = SL-16 R/B
OBJECT_ID      = 1988-039B
CENTER_NAME    = EARTH
REF_FRAME      = TEME
TIME_SYSTEM    = UTC
MEAN_ELEMENT_THEORY = SGP/SGP4

EPOCH          = 2026-03-20T08:07:09.966720
MEAN_MOTION    = 14.19617766
ECCENTRICITY   = .00232885
INCLINATION    = 71.0151
RA_OF_ASC_NODE = 46.0292
ARG_OF_PERICENTER = 318.9466
MEAN_ANOMALY   = 40.9905

EPHEMERIS_TYPE = 0
CLASSIFICATION_TYPE = U
NORAD_CAT_ID   = 19120
ELEMENT_SET_NO = 999
REV_AT_EPOCH   = 95989
BSTAR          = -.3190284E-4
MEAN_MOTION_DOT = -.116E-5
MEAN_MOTION_DDOT = 0

CCSDS_OMM_VERS = 2.0
CREATION_DATE  = 
ORIGINATOR     = 

OBJECT_NAME    = COSMOS 1953
OBJECT_ID      = 1988-050A
CENTER_NAME    = EARTH
REF_FRAME      = TEME
TIME_SYSTEM    = UTC
MEAN_ELEMENT_THEORY = SGP/SGP4

EPOCH          = 2026-03-20T05:31:35.525856
MEAN_MOTION    = 15.28683692
ECCENTRICITY   = .0012666
INCLINATION    = 82.5089
RA_OF_ASC_NODE = 147.6459
ARG_OF_PERICENTER = 89.5942
MEAN_ANOMALY   = 270.6749

EPHEMERIS_TYPE = 0
CLASSIFICATION_TYPE = U
NORAD_CAT_ID   = 19210
ELEMENT_SET_NO = 999
REV_AT_EPOCH   = 3939
BSTAR          = .16756E-3
MEAN_MOTION_DOT = .4716E-4
MEAN_MOTION_DDOT = 0

CCSDS_OMM_VERS = 2.0
CREATION_DATE  = 
ORIGINATOR     = 

OBJECT_NAME    = SL-8 R/B
OBJECT_ID      = 1988-053B
CENTER_NAME    = EARTH
REF_FRAME      = TEME
TIME_SYSTEM    = UTC
MEAN_ELEMENT_THEORY = SGP/SGP4

EPOCH          = 2026-03-20T10:35:46.586688
MEAN_MOTION    = 14.38922647
ECCENTRICITY   = .00215497
INCLINATION    = 74.0450
RA_OF_ASC_NODE = 92.6458
ARG_OF_PERICENTER = 270.5389
MEAN_ANOMALY   = 195.5849

EPHEMERIS_TYPE = 0
CLASSIFICATION_TYPE = U
NORAD_CAT_ID   = 19257
ELEMENT_SET_NO = 999
REV_AT_EPOCH   = 97814
BSTAR          = .94786633E-4
MEAN_MOTION_DOT = .266E-5
MEAN_MOTION_DDOT = 0

CCSDS_OMM_VERS = 2.0
CREATION_DATE  = 
ORIGINATOR     = 

OBJECT_NAME    = COSMOS 1975
OBJECT_ID      = 1988-093A
CENTER_NAME    = EARTH
REF_FRAME      = TEME
TIME_SYSTEM    = UTC
MEAN_ELEMENT_THEORY = SGP/SGP4

EPOCH          = 2026-03-20T12:42:00.290592
MEAN_MOTION    = 15.28205545
ECCENTRICITY   = .00130419
INCLINATION    = 82.5160
RA_OF_ASC_NODE = 106.8006
ARG_OF_PERICENTER = 127.8919
MEAN_ANOMALY   = 232.3502

EPHEMERIS_TYPE = 0
CLASSIFICATION_TYPE = U
NORAD_CAT_ID   = 19573
ELEMENT_SET_NO = 999
REV_AT_EPOCH   = 2106
BSTAR          = .20652071E-3
MEAN_MOTION_DOT = .5722E-4
MEAN_MOTION_DDOT = 0

CCSDS_OMM_VERS = 2.0
CREATION_DATE  = 
ORIGINATOR     = 

OBJECT_NAME    = SL-14 R/B
OBJECT_ID      = 1988-093B
CENTER_NAME    = EARTH
REF_FRAME      = TEME
TIME_SYSTEM    = UTC
MEAN_ELEMENT_THEORY = SGP/SGP4

EPOCH          = 2026-03-20T09:09:18.355680
MEAN_MOTION    = 14.85668857
ECCENTRICITY   = .00208783
INCLINATION    = 82.5327
RA_OF_ASC_NODE = 32.0076
ARG_OF_PERICENTER = 7.2816
MEAN_ANOMALY   = 108.8688

EPHEMERIS_TYPE = 0
CLASSIFICATION_TYPE = U
NORAD_CAT_ID   = 19574
ELEMENT_SET_NO = 999
REV_AT_EPOCH   = 260
BSTAR          = .53646777E-4
MEAN_MOTION_DOT = .491E-5
MEAN_MOTION_DDOT = 0

CCSDS_OMM_VERS = 2.0
CREATION_DATE  = 
ORIGINATOR     = 

OBJECT_NAME    = SL-16 R/B
OBJECT_ID      = 1988-102B
CENTER_NAME    = EARTH
REF_FRAME      = TEME
TIME_SYSTEM    = UTC
MEAN_ELEMENT_THEORY = SGP/SGP4

EPOCH          = 2026-03-20T10:18:29.605248
MEAN_MOTION    = 14.16155874
ECCENTRICITY   = .00147229
INCLINATION    = 70.9988
RA_OF_ASC_NODE = 128.9005
ARG_OF_PERICENTER = 344.9058
MEAN_ANOMALY   = 15.1624

EPHEMERIS_TYPE = 0
CLASSIFICATION_TYPE = U
NORAD_CAT_ID   = 19650
ELEMENT_SET_NO = 999
REV_AT_EPOCH   = 92841
BSTAR          = -.39674909E-4
MEAN_MOTION_DOT = -.126E-5
MEAN_MOTION_DDOT = 0

CCSDS_OMM_VERS = 2.0
CREATION_DATE  = 
ORIGINATOR     = 

OBJECT_NAME    = INTERCOSMOS 24
OBJECT_ID      = 1989-080A
CENTER_NAME    = EARTH
REF_FRAME      = TEME
TIME_SYSTEM    = UTC
MEAN_ELEMENT_THEORY = SGP/SGP4

EPOCH          = 2026-03-20T06:53:49.664832
MEAN_MOTION    = 12.59572157
ECCENTRICITY   = .1186692
INCLINATION    = 82.6016
RA_OF_ASC_NODE = 97.5012
ARG_OF_PERICENTER = 268.1968
MEAN_ANOMALY   = 78.3158

EPHEMERIS_TYPE = 0
CLASSIFICATION_TYPE = U
NORAD_CAT_ID   = 20261
ELEMENT_SET_NO = 999
REV_AT_EPOCH   = 66813
BSTAR          = .14137E-3
MEAN_MOTION_DOT = .476E-5
MEAN_MOTION_DDOT = 0

CCSDS_OMM_VERS = 2.0
CREATION_DATE  = 
ORIGINATOR     = 

OBJECT_NAME    = SL-14 R/B
OBJECT_ID      = 1989-080C
CENTER_NAME    = EARTH
REF_FRAME      = TEME
TIME_SYSTEM    = UTC
MEAN_ELEMENT_THEORY = SGP/SGP4

EPOCH          = 2026-03-20T12:26:37.382208
MEAN_MOTION    = 12.50505070
ECCENTRICITY   = .12308211
INCLINATION    = 82.5967
RA_OF_ASC_NODE = 166.2374
ARG_OF_PERICENTER = 160.0075
MEAN_ANOMALY   = 205.3979

EPHEMERIS_TYPE = 0
CLASSIFICATION_TYPE = U
NORAD_CAT_ID   = 20262
ELEMENT_SET_NO = 999
REV_AT_EPOCH   = 66150
BSTAR          = .11660542E-3
MEAN_MOTION_DOT = .411E-5
MEAN_MOTION_DDOT = 0

CCSDS_OMM_VERS = 2.0
CREATION_DATE  = 
ORIGINATOR     = 

OBJECT_NAME    = DELTA 1 R/B
OBJECT_ID      = 1989-089B
CENTER_NAME    = EARTH
REF_FRAME      = TEME
TIME_SYSTEM    = UTC
MEAN_ELEMENT_THEORY = SGP/SGP4

EPOCH          = 2026-03-20T07:29:22.498944
MEAN_MOTION    = 14.50671687
ECCENTRICITY   = .00707188
INCLINATION    = 97.0697
RA_OF_ASC_NODE = 285.0606
ARG_OF_PERICENTER = 89.0718
MEAN_ANOMALY   = 271.8582

EPHEMERIS_TYPE = 0
CLASSIFICATION_TYPE = U
NORAD_CAT_ID   = 20323
ELEMENT_SET_NO = 999
REV_AT_EPOCH   = 89727
BSTAR          = .84955568E-4
MEAN_MOTION_DOT = .31E-5
MEAN_MOTION_DDOT = 0

CCSDS_OMM_VERS = 2.0
CREATION_DATE  = 
ORIGINATOR     = 

OBJECT_NAME    = ARIANE 40 R/B
OBJECT_ID      = 1990-005H
CENTER_NAME    = EARTH
REF_FRAME      = TEME
TIME_SYSTEM    = UTC
MEAN_ELEMENT_THEORY = SGP/SGP4

EPOCH          = 2026-03-20T14:01:51.784032
MEAN_MOTION    = 14.39877116
ECCENTRICITY   = .00105388
INCLINATION    = 98.3060
RA_OF_ASC_NODE = 139.9203
ARG_OF_PERICENTER = 165.6883
MEAN_ANOMALY   = 194.4606

EPHEMERIS_TYPE = 0
CLASSIFICATION_TYPE = U
NORAD_CAT_ID   = 20443
ELEMENT_SET_NO = 999
REV_AT_EPOCH   = 89437
BSTAR          = .81790974E-4
MEAN_MOTION_DOT = .215E-5
MEAN_MOTION_DDOT = 0

CCSDS_OMM_VERS = 2.0
CREATION_DATE  = 
ORIGINATOR     = 

OBJECT_NAME    = DELTA 2 R/B(1)
OBJECT_ID      = 1990-008B
CENTER_NAME    = EARTH
REF_FRAME      = TEME
TIME_SYSTEM    = UTC
MEAN_ELEMENT_THEORY = SGP/SGP4

EPOCH          = 2026-03-20T03:34:54.803424
MEAN_MOTION    = 15.57257585
ECCENTRICITY   = .00815089
INCLINATION    = 35.6026
RA_OF_ASC_NODE = 106.1373
ARG_OF_PERICENTER = 355.6437
MEAN_ANOMALY   = 4.3584

EPHEMERIS_TYPE = 0
CLASSIFICATION_TYPE = U
NORAD_CAT_ID   = 20453
ELEMENT_SET_NO = 999
REV_AT_EPOCH   = 92776
BSTAR          = .6206102E-3
MEAN_MOTION_DOT = .54938E-3
MEAN_MOTION_DDOT = 0

